STARLINK-4454
1 53499U 22099AL  26092.86540786  .00004364  00000+0  29974-3 0  9995
2 53499  97.6033 215.1189 0000621 103.1395 256.9901 15.06476849199694
